CCSDS_OMM_VERS = 2.0
CREATION_DATE  = 
ORIGINATOR     = 

OBJECT_NAME    = SL-14 R/B
OBJECT_ID      = 1986-046B
CENTER_NAME    = EARTH
REF_FRAME      = TEME
TIME_SYSTEM    = UTC
MEAN_ELEMENT_THEORY = SGP/SGP4

EPOCH          = 2026-01-16T09:42:10.750176
MEAN_MOTION    = 14.85528745
ECCENTRICITY   = .00241091
INCLINATION    = 82.4836
RA_OF_ASC_NODE = 129.5790
ARG_OF_PERICENTER = 43.6545
MEAN_ANOMALY   = 316.6573

EPHEMERIS_TYPE = 0
CLASSIFICATION_TYPE = U
NORAD_CAT_ID   = 16792
ELEMENT_SET_NO = 999
REV_AT_EPOCH   = 11864
BSTAR          = .38707625E-4
MEAN_MOTION_DOT = .36E-5
MEAN_MOTION_DDOT = 0

CCSDS_OMM_VERS = 2.0
CREATION_DATE  = 
ORIGINATOR     = 

OBJECT_NAME    = SL-14 R/B
OBJECT_ID      = 1986-055B
CENTER_NAME    = EARTH
REF_FRAME      = TEME
TIME_SYSTEM    = UTC
MEAN_ELEMENT_THEORY = SGP/SGP4

EPOCH          = 2026-01-16T14:38:13.654464
MEAN_MOTION    = 14.85572713
ECCENTRICITY   = .00198525
INCLINATION    = 82.5208
RA_OF_ASC_NODE = 175.6057
ARG_OF_PERICENTER = 141.1352
MEAN_ANOMALY   = 313.8673

EPHEMERIS_TYPE = 0
CLASSIFICATION_TYPE = U
NORAD_CAT_ID   = 16882
ELEMENT_SET_NO = 999
REV_AT_EPOCH   = 11163
BSTAR          = .43786802E-4
MEAN_MOTION_DOT = .404E-5
MEAN_MOTION_DDOT = 0

CCSDS_OMM_VERS = 2.0
CREATION_DATE  = 
ORIGINATOR     = 

OBJECT_NAME    = AJISAI (EGS)
OBJECT_ID      = 1986-061A
CENTER_NAME    = EARTH
REF_FRAME      = TEME
TIME_SYSTEM    = UTC
MEAN_ELEMENT_THEORY = SGP/SGP4

EPOCH          = 2026-01-16T14:24:18.255456
MEAN_MOTION    = 12.44514991
ECCENTRICITY   = .00112984
INCLINATION    = 50.0077
RA_OF_ASC_NODE = 253.5250
ARG_OF_PERICENTER = 153.4658
MEAN_ANOMALY   = 293.4738

EPHEMERIS_TYPE = 0
CLASSIFICATION_TYPE = U
NORAD_CAT_ID   = 16908
ELEMENT_SET_NO = 999
REV_AT_EPOCH   = 46151
BSTAR          = .24050727E-3
MEAN_MOTION_DOT = -.63E-6
MEAN_MOTION_DDOT = 0

CCSDS_OMM_VERS = 2.0
CREATION_DATE  = 
ORIGINATOR     = 

OBJECT_NAME    = COSMOS 1812
OBJECT_ID      = 1987-003A
CENTER_NAME    = EARTH
REF_FRAME      = TEME
TIME_SYSTEM    = UTC
MEAN_ELEMENT_THEORY = SGP/SGP4

EPOCH          = 2026-01-16T09:08:01.075200
MEAN_MOTION    = 15.84388448
ECCENTRICITY   = .00025947
INCLINATION    = 82.4837
RA_OF_ASC_NODE = 254.2820
ARG_OF_PERICENTER = 46.4827
MEAN_ANOMALY   = 313.6658

EPHEMERIS_TYPE = 0
CLASSIFICATION_TYPE = U
NORAD_CAT_ID   = 17295
ELEMENT_SET_NO = 999
REV_AT_EPOCH   = 13612
BSTAR          = .54336526E-3
MEAN_MOTION_DOT = .12464E-2
MEAN_MOTION_DDOT = 0

CCSDS_OMM_VERS = 2.0
CREATION_DATE  = 
ORIGINATOR     = 

OBJECT_NAME    = SL-14 R/B
OBJECT_ID      = 1987-024B
CENTER_NAME    = EARTH
REF_FRAME      = TEME
TIME_SYSTEM    = UTC
MEAN_ELEMENT_THEORY = SGP/SGP4

EPOCH          = 2026-01-16T14:11:34.602144
MEAN_MOTION    = 14.86068856
ECCENTRICITY   = .00196748
INCLINATION    = 82.5301
RA_OF_ASC_NODE = 141.7166
ARG_OF_PERICENTER = 74.7348
MEAN_ANOMALY   = 285.6042

EPHEMERIS_TYPE = 0
CLASSIFICATION_TYPE = U
NORAD_CAT_ID   = 17567
ELEMENT_SET_NO = 999
REV_AT_EPOCH   = 8039
BSTAR          = .37844328E-4
MEAN_MOTION_DOT = .357E-5
MEAN_MOTION_DDOT = 0

CCSDS_OMM_VERS = 2.0
CREATION_DATE  = 
ORIGINATOR     = 

OBJECT_NAME    = COSMOS 1833
OBJECT_ID      = 1987-027A
CENTER_NAME    = EARTH
REF_FRAME      = TEME
TIME_SYSTEM    = UTC
MEAN_ELEMENT_THEORY = SGP/SGP4

EPOCH          = 2026-01-16T13:07:20.615232
MEAN_MOTION    = 14.13045016
ECCENTRICITY   = .00241817
INCLINATION    = 70.9192
RA_OF_ASC_NODE = 75.6122
ARG_OF_PERICENTER = 283.7925
MEAN_ANOMALY   = 76.0505

EPHEMERIS_TYPE = 0
CLASSIFICATION_TYPE = U
NORAD_CAT_ID   = 17589
ELEMENT_SET_NO = 999
REV_AT_EPOCH   = 295
BSTAR          = .18664563E-3
MEAN_MOTION_DOT = .301E-5
MEAN_MOTION_DDOT = 0

CCSDS_OMM_VERS = 2.0
CREATION_DATE  = 
ORIGINATOR     = 

OBJECT_NAME    = SL-16 R/B
OBJECT_ID      = 1987-027B
CENTER_NAME    = EARTH
REF_FRAME      = TEME
TIME_SYSTEM    = UTC
MEAN_ELEMENT_THEORY = SGP/SGP4

EPOCH          = 2026-01-16T11:01:55.382592
MEAN_MOTION    = 14.17160263
ECCENTRICITY   = .00064101
INCLINATION    = 71.0033
RA_OF_ASC_NODE = 26.5547
ARG_OF_PERICENTER = 222.6402
MEAN_ANOMALY   = 137.4225

EPHEMERIS_TYPE = 0
CLASSIFICATION_TYPE = U
NORAD_CAT_ID   = 17590
ELEMENT_SET_NO = 999
REV_AT_EPOCH   = 794
BSTAR          = -.46545458E-4
MEAN_MOTION_DOT = -.142E-5
MEAN_MOTION_DDOT = 0

CCSDS_OMM_VERS = 2.0
CREATION_DATE  = 
ORIGINATOR     = 

OBJECT_NAME    = SL-14 R/B
OBJECT_ID      = 1987-038B
CENTER_NAME    = EARTH
REF_FRAME      = TEME
TIME_SYSTEM    = UTC
MEAN_ELEMENT_THEORY = SGP/SGP4

EPOCH          = 2026-01-16T10:11:38.837184
MEAN_MOTION    = 14.85301968
ECCENTRICITY   = .00187937
INCLINATION    = 82.5026
RA_OF_ASC_NODE = 346.0284
ARG_OF_PERICENTER = 342.1922
MEAN_ANOMALY   = 17.8633

EPHEMERIS_TYPE = 0
CLASSIFICATION_TYPE = U
NORAD_CAT_ID   = 17912
ELEMENT_SET_NO = 999
REV_AT_EPOCH   = 7147
BSTAR          = .445185E-4
MEAN_MOTION_DOT = .407E-5
MEAN_MOTION_DDOT = 0

CCSDS_OMM_VERS = 2.0
CREATION_DATE  = 
ORIGINATOR     = 

OBJECT_NAME    = COSMOS 1844
OBJECT_ID      = 1987-041A
CENTER_NAME    = EARTH
REF_FRAME      = TEME
TIME_SYSTEM    = UTC
MEAN_ELEMENT_THEORY = SGP/SGP4

EPOCH          = 2026-01-16T15:17:09.811104
MEAN_MOTION    = 14.14537165
ECCENTRICITY   = .00282753
INCLINATION    = 70.8996
RA_OF_ASC_NODE = 143.9689
ARG_OF_PERICENTER = 101.4662
MEAN_ANOMALY   = 258.9637

EPHEMERIS_TYPE = 0
CLASSIFICATION_TYPE = U
NORAD_CAT_ID   = 17973
ELEMENT_SET_NO = 999
REV_AT_EPOCH   = 99622
BSTAR          = -.12820378E-3
MEAN_MOTION_DOT = -.295E-5
MEAN_MOTION_DDOT = 0

CCSDS_OMM_VERS = 2.0
CREATION_DATE  = 
ORIGINATOR     = 

OBJECT_NAME    = SL-14 R/B
OBJECT_ID      = 1987-055B
CENTER_NAME    = EARTH
REF_FRAME      = TEME
TIME_SYSTEM    = UTC
MEAN_ELEMENT_THEORY = SGP/SGP4

EPOCH          = 2026-01-16T13:05:19.396032
MEAN_MOTION    = 14.85559573
ECCENTRICITY   = .00205903
INCLINATION    = 82.4976
RA_OF_ASC_NODE = 38.1793
ARG_OF_PERICENTER = 181.6811
MEAN_ANOMALY   = 178.4340

EPHEMERIS_TYPE = 0
CLASSIFICATION_TYPE = U
NORAD_CAT_ID   = 18153
ELEMENT_SET_NO = 999
REV_AT_EPOCH   = 6219
BSTAR          = .34577141E-4
MEAN_MOTION_DOT = .324E-5
MEAN_MOTION_DDOT = 0

CCSDS_OMM_VERS = 2.0
CREATION_DATE  = 
ORIGINATOR     = 

OBJECT_NAME    = COSMOS 1867
OBJECT_ID      = 1987-060A
CENTER_NAME    = EARTH
REF_FRAME      = TEME
TIME_SYSTEM    = UTC
MEAN_ELEMENT_THEORY = SGP/SGP4

EPOCH          = 2026-01-16T14:29:31.121952
MEAN_MOTION    = 14.31492806
ECCENTRICITY   = .0013865
INCLINATION    = 65.0111
RA_OF_ASC_NODE = 92.5703
ARG_OF_PERICENTER = 274.4985
MEAN_ANOMALY   = 85.4516

EPHEMERIS_TYPE = 0
CLASSIFICATION_TYPE = U
NORAD_CAT_ID   = 18187
ELEMENT_SET_NO = 999
REV_AT_EPOCH   = 1248
BSTAR          = .1499876E-4
MEAN_MOTION_DOT = -.6E-6
MEAN_MOTION_DDOT = 0

CCSDS_OMM_VERS = 2.0
CREATION_DATE  = 
ORIGINATOR     = 

OBJECT_NAME    = SL-14 R/B
OBJECT_ID      = 1988-001B
CENTER_NAME    = EARTH
REF_FRAME      = TEME
TIME_SYSTEM    = UTC
MEAN_ELEMENT_THEORY = SGP/SGP4

EPOCH          = 2026-01-16T08:02:36.270528
MEAN_MOTION    = 14.85462318
ECCENTRICITY   = .00193301
INCLINATION    = 82.5113
RA_OF_ASC_NODE = 244.6089
ARG_OF_PERICENTER = 54.2944
MEAN_ANOMALY   = 306.0067

EPHEMERIS_TYPE = 0
CLASSIFICATION_TYPE = U
NORAD_CAT_ID   = 18749
ELEMENT_SET_NO = 999
REV_AT_EPOCH   = 3425
BSTAR          = .34535029E-4
MEAN_MOTION_DOT = .323E-5
MEAN_MOTION_DDOT = 0

