SL-14 R/B               
1 16792U 86046B   26016.40429109  .00000360  00000+0  38708-4 0  9991
2 16792  82.4836 129.5790 0024109  43.6545 316.6573 14.85528745118644
SL-14 R/B               
1 16882U 86055B   26016.60988026  .00000404  00000+0  43787-4 0  9993
2 16882  82.5208 175.6057 0019852 141.1352 313.8673 14.85572713111631
AJISAI (EGS)            
1 16908U 86061A   26016.60021129 -.00000063  00000+0  24051-3 0  9995
2 16908  50.0077 253.5250 0011298 153.4658 293.4738 12.44514991461513
COSMOS 1812             
1 17295U 87003A   26016.38056800  .00124640  00000+0  54337-3 0  9998
2 17295  82.4837 254.2820 0002594  46.4827 313.6658 15.84388448136120
SL-14 R/B               
1 17567U 87024B   26016.59137271  .00000357  00000+0  37844-4 0  9991
2 17567  82.5301 141.7166 0019674  74.7348 285.6042 14.86068856 80392
COSMOS 1833             
1 17589U 87027A   26016.54676638  .00000301  00000+0  18665-3 0  9996
2 17589  70.9192  75.6122 0024181 283.7925  76.0505 14.13045016  2959
SL-16 R/B               
1 17590U 87027B   26016.45966878 -.00000142  00000+0 -46545-4 0  9990
2 17590  71.0033  26.5547 0006410 222.6402 137.4225 14.17160263  7941
SL-14 R/B               
1 17912U 87038B   26016.42475506  .00000407  00000+0  44518-4 0  9990
2 17912  82.5026 346.0284 0018793 342.1922  17.8633 14.85301968 71475
COSMOS 1844             
1 17973U 87041A   26016.63691911 -.00000295  00000+0 -12820-3 0  9991
2 17973  70.8996 143.9689 0028275 101.4662 258.9637 14.14537165996227
SL-14 R/B               
1 18153U 87055B   26016.54536338  .00000324  00000+0  34577-4 0  9993
2 18153  82.4976  38.1793 0020590 181.6811 178.4340 14.85559573 62196
COSMOS 1867             
1 18187U 87060A   26016.60383243 -.00000060  00000+0  14999-4 0  9992
2 18187  65.0111  92.5703 0013865 274.4985  85.4516 14.31492806 12481
SL-14 R/B               
1 18749U 88001B   26016.33514202  .00000323  00000+0  34535-4 0  9992
2 18749  82.5113 244.6089 0019330  54.2944 306.0067 14.85462318 34256
